{"type": "FeatureCollection", "features": [ {"type": "Feature", "properties": {"norad_id": 40664, "name": "SKY MEXICO-1", "group": "intelsat", "lat": -0.028872461247708037, "lon": -73.08584210313592, "alt_km": 35775.286822429094, "timestamp": "2025-12-11T18:59:45.734696+00:00", "meta": {"OBJECT_NAME": "SKY MEXICO-1", "OBJECT_ID": "2015-026B", "EPOCH": "2025-12-11T04:34:36.118848", "MEAN_MOTION": 1.00270496, "ECCENTRICITY": 0.00026928, "INCLINATION": 0.0323, "RA_OF_ASC_NODE": 73.3135, "ARG_OF_PERICENTER": 203.708, "MEAN_ANOMALY": 153.0124, "EPHEMERIS_TYPE": 0, "CLASSIFICATION_TYPE": "U", "NORAD_CAT_ID": 40664, "ELEMENT_SET_NO": 999, "REV_AT_EPOCH": 3856, "BSTAR": 0, "MEAN_MOTION_DOT": -2.28e-06, "MEAN_MOTION_DDOT": 0}, "tle": {"line1": "1 40664U 15026B   25345.19069582 -.00000228  00000+0  00000+0 0  9994", "line2": "2 40664   0.0323  73.3135 0002692 203.7080 153.0124  1.00270496 38568"}}, "geometry": {"type": "Point", "coordinates": [-73.08584210313592, -0.028872461247708037]}}, {"type": "Feature", "properties": {"norad_id": 40874, "name": "INTELSAT 34 (IS-34)", "group": "intelsat", "lat": -0.009999856559731637, "lon": -49.820754676366896, "alt_km": 35788.386638044074, "timestamp": "2025-12-11T18:59:45.734708+00:00", "meta": {"OBJECT_NAME": "INTELSAT 34 (IS-34)", "OBJECT_ID": "2015-039A", "EPOCH": "2025-12-11T04:41:12.985152", "MEAN_MOTION": 1.00269816, "ECCENTRICITY": 4.668e-05, "INCLINATION": 0.0139, "RA_OF_ASC_NODE": 324.1286, "ARG_OF_PERICENTER": 196.8091, "MEAN_ANOMALY": 294.0237, "EPHEMERIS_TYPE": 0, "CLASSIFICATION_TYPE": "U", "NORAD_CAT_ID": 40874, "ELEMENT_SET_NO": 999, "REV_AT_EPOCH": 3774, "BSTAR": 0, "MEAN_MOTION_DOT": -2.79e-06, "MEAN_MOTION_DDOT": 0}, "tle": {"line1": "1 40874U 15039A   25345.19528918 -.00000279  00000+0  00000+0 0  9990", "line2": "2 40874   0.0139 324.1286 0000466 196.8091 294.0237  1.00269816 37745"}}, "geometry": {"type": "Point", "coordinates": [-49.820754676366896, -0.009999856559731637]}}, {"type": "Feature", "properties": {"norad_id": 41581, "name": "INTELSAT 31 (IS-31)", "group": "intelsat", "lat": -0.011417133073715278, "lon": -89.35888660377512, "alt_km": 35780.93056885413, "timestamp": "2025-12-11T18:59:45.734721+00:00", "meta": {"OBJECT_NAME": "INTELSAT 31 (IS-31)", "OBJECT_ID": "2016-035A", "EPOCH": "2025-12-11T02:47:08.911104", "MEAN_MOTION": 1.00272585, "ECCENTRICITY": 0.00019714, "INCLINATION": 0.0158, "RA_OF_ASC_NODE": 272.679, "ARG_OF_PERICENTER": 304.2877, "MEAN_ANOMALY": 169.8397, "EPHEMERIS_TYPE": 0, "CLASSIFICATION_TYPE": "U", "NORAD_CAT_ID": 41581, "ELEMENT_SET_NO": 999, "REV_AT_EPOCH": 3479, "BSTAR": 0, "MEAN_MOTION_DOT": -1.45e-06, "MEAN_MOTION_DDOT": 0}, "tle": {"line1": "1 41581U 16035A   25345.11607536 -.00000145  00000+0  00000+0 0  9991", "line2": "2 41581   0.0158 272.6790 0001971 304.2877 169.8397  1.00272585 34793"}}, "geometry": {"type": "Point", "coordinates": [-89.35888660377512, -0.011417133073715278]}}, {"type": "Feature", "properties": {"norad_id": 41747, "name": "INTELSAT 36 (IS-36)", "group": "intelsat", "lat": 0.028660068832497294, "lon": 74.18078462097631, "alt_km": 35788.84321990142, "timestamp": "2025-12-11T18:59:45.734732+00:00", "meta": {"OBJECT_NAME": "INTELSAT 36 (IS-36)", "OBJECT_ID": "2016-053A", "EPOCH": "2025-12-11T05:16:24.615840", "MEAN_MOTION": 1.00270343, "ECCENTRICITY": 0.00014668, "INCLINATION": 0.0147, "RA_OF_ASC_NODE": 14.6045, "ARG_OF_PERICENTER": 307.0469, "MEAN_ANOMALY": 266.1197, "EPHEMERIS_TYPE": 0, "CLASSIFICATION_TYPE": "U", "NORAD_CAT_ID": 41747, "ELEMENT_SET_NO": 999, "REV_AT_EPOCH": 3406, "BSTAR": 0, "MEAN_MOTION_DOT": -1.8e-07, "MEAN_MOTION_DDOT": 0}, "tle": {"line1": "1 41747U 16053A   25345.21972935 -.00000018  00000+0  00000+0 0  9993", "line2": "2 41747   0.0147  14.6045 0001466 307.0469 266.1197  1.00270343 34068"}}, "geometry": {"type": "Point", "coordinates": [74.18078462097631, 0.028660068832497294]}}, {"type": "Feature", "properties": {"norad_id": 41945, "name": "INTELSAT 32E (IS-32E)", "group": "intelsat", "lat": -0.031402080353896564, "lon": -37.50946675009619, "alt_km": 35784.93476379989, "timestamp": "2025-12-11T18:59:45.734744+00:00", "meta": {"OBJECT_NAME": "INTELSAT 32E (IS-32E)", "OBJECT_ID": "2017-007B", "EPOCH": "2025-12-11T04:44:42.651168", "MEAN_MOTION": 1.00269616, "ECCENTRICITY": 5.322e-05, "INCLINATION": 0.0343, "RA_OF_ASC_NODE": 80.0964, "ARG_OF_PERICENTER": 277.6705, "MEAN_ANOMALY": 110.3883, "EPHEMERIS_TYPE": 0, "CLASSIFICATION_TYPE": "U", "NORAD_CAT_ID": 41945, "ELEMENT_SET_NO": 999, "REV_AT_EPOCH": 3234, "BSTAR": 0, "MEAN_MOTION_DOT": -2.63e-06, "MEAN_MOTION_DDOT": 0}, "tle": {"line1": "1 41945U 17007B   25345.19771587 -.00000263  00000+0  00000+0 0  9992", "line2": "2 41945   0.0343  80.0964 0000532 277.6705 110.3883  1.00269616 32343"}}, "geometry": {"type": "Point", "coordinates": [-37.50946675009619, -0.031402080353896564]}}, {"type": "Feature", "properties": {"norad_id": 42818, "name": "INTELSAT 35E (IS-35E)", "group": "intelsat", "lat": -0.01090141228251986, "lon": -28.816063877546977, "alt_km": 35782.52312529584, "timestamp": "2025-12-11T18:59:45.734756+00:00", "meta": {"OBJECT_NAME": "INTELSAT 35E (IS-35E)", "OBJECT_ID": "2017-041A", "EPOCH": "2025-12-11T03:04:29.748576", "MEAN_MOTION": 1.00269178, "ECCENTRICITY": 0.00022113, "INCLINATION": 0.0179, "RA_OF_ASC_NODE": 355.4658, "ARG_OF_PERICENTER": 273.4798, "MEAN_ANOMALY": 182.7563, "EPHEMERIS_TYPE": 0, "CLASSIFICATION_TYPE": "U", "NORAD_CAT_ID": 42818, "ELEMENT_SET_NO": 999, "REV_AT_EPOCH": 3093, "BSTAR": 0, "MEAN_MOTION_DOT": -2.33e-06, "MEAN_MOTION_DDOT": 0}, "tle": {"line1": "1 42818U 17041A   25345.12812209 -.00000233  00000+0  00000+0 0  9997", "line2": "2 42818   0.0179 355.4658 0002211 273.4798 182.7563  1.00269178 30935"}}, "geometry": {"type": "Point", "coordinates": [-28.816063877546977, -0.01090141228251986]}}, {"type": "Feature", "properties": {"norad_id": 42950, "name": "INTELSAT 37E (IS-37E)", "group": "intelsat", "lat": -0.0023109928786386887, "lon": -12.277613408777102, "alt_km": 35786.57225755978, "timestamp": "2025-12-11T18:59:45.734788+00:00", "meta": {"OBJECT_NAME": "INTELSAT 37E (IS-37E)", "OBJECT_ID": "2017-059A", "EPOCH": "2025-12-11T04:51:56.958048", "MEAN_MOTION": 1.00271879, "ECCENTRICITY": 0.00031625, "INCLINATION": 0.0018, "RA_OF_ASC_NODE": 17.2406, "ARG_OF_PERICENTER": 238.3081, "MEAN_ANOMALY": 239.6081, "EPHEMERIS_TYPE": 0, "CLASSIFICATION_TYPE": "U", "NORAD_CAT_ID": 42950, "ELEMENT_SET_NO": 999, "REV_AT_EPOCH": 3018, "BSTAR": 0, "MEAN_MOTION_DOT": -1.35e-06, "MEAN_MOTION_DDOT": 0}, "tle": {"line1": "1 42950U 17059A   25345.20274257 -.00000135  00000+0  00000+0 0  9998", "line2": "2 42950   0.0018  17.2406 0003162 238.3081 239.6081  1.00271879 30184"}}, "geometry": {"type": "Point", "coordinates": [-12.277613408777102, -0.0023109928786386887]}}, {"type": "Feature", "properties": {"norad_id": 43632, "name": "AZERSPACE 2 (IS-38)", "group": "intelsat", "lat": 0.03041793734929345, "lon": 50.798542352611435, "alt_km": 35790.98870114168, "timestamp": "2025-12-11T18:59:45.734804+00:00", "meta": {"OBJECT_NAME": "AZERSPACE 2 (IS-38)", "OBJECT_ID": "2018-074A", "EPOCH": "2025-12-11T05:09:55.236960", "MEAN_MOTION": 1.00271624, "ECCENTRICITY": 0.00014552, "INCLINATION": 0.0184, "RA_OF_ASC_NODE": 359.8612, "ARG_OF_PERICENTER": 267.7257, "MEAN_ANOMALY": 295.1778, "EPHEMERIS_TYPE": 0, "CLASSIFICATION_TYPE": "U", "NORAD_CAT_ID": 43632, "ELEMENT_SET_NO": 999, "REV_AT_EPOCH": 2656, "BSTAR": 0, "MEAN_MOTION_DOT": 1.42e-06, "MEAN_MOTION_DDOT": 0}, "tle": {"line1": "1 43632U 18074A   25345.21522265  .00000142  00000+0  00000+0 0  9997", "line2": "2 43632   0.0184 359.8612 0001455 267.7257 295.1778  1.00271624 26569"}}, "geometry": {"type": "Point", "coordinates": [50.798542352611435, 0.03041793734929345]}}, {"type": "Feature", "properties": {"norad_id": 43633, "name": "HORIZONS-3E", "group": "intelsat", "lat": -0.017847570576674215, "lon": 174.67056780197944, "alt_km": 35787.94906307383, "timestamp": "2025-12-11T18:59:45.734818+00:00", "meta": {"OBJECT_NAME": "HORIZONS-3E", "OBJECT_ID": "2018-074B", "EPOCH": "2025-12-10T19:28:56.939232", "MEAN_MOTION": 1.00269493, "ECCENTRICITY": 0.0001199, "INCLINATION": 0.0426, "RA_OF_ASC_NODE": 178.6641, "ARG_OF_PERICENTER": 100.4377, "MEAN_ANOMALY": 261.9253, "EPHEMERIS_TYPE": 0, "CLASSIFICATION_TYPE": "U", "NORAD_CAT_ID": 43633, "ELEMENT_SET_NO": 999, "REV_AT_EPOCH": 2645, "BSTAR": 0, "MEAN_MOTION_DOT": -2.6e-07, "MEAN_MOTION_DDOT": 0}, "tle": {"line1": "1 43633U 18074B   25344.81177013 -.00000026  00000+0  00000+0 0  9992", "line2": "2 43633   0.0426 178.6641 0001199 100.4377 261.9253  1.00269493 26457"}}, "geometry": {"type": "Point", "coordinates": [174.67056780197944, -0.017847570576674215]}}, {"type": "Feature", "properties": {"norad_id": 44333, "name": "AT&T T-16", "group": "intelsat", "lat": -0.020632043965171872, "lon": -95.19522059704302, "alt_km": 35787.999725111506, "timestamp": "2025-12-11T18:59:45.734831+00:00", "meta": {"OBJECT_NAME": "AT&T T-16", "OBJECT_ID": "2019-034A", "EPOCH": "2025-12-10T23:20:04.800192", "MEAN_MOTION": 1.00268632, "ECCENTRICITY": 5.108e-05, "INCLINATION": 0.0297, "RA_OF_ASC_NODE": 74.5044, "ARG_OF_PERICENTER": 72.1437, "MEAN_ANOMALY": 182.4372, "EPHEMERIS_TYPE": 0, "CLASSIFICATION_TYPE": "U", "NORAD_CAT_ID": 44333, "ELEMENT_SET_NO": 999, "REV_AT_EPOCH": 2374, "BSTAR": 0, "MEAN_MOTION_DOT": -1.09e-06, "MEAN_MOTION_DDOT": 0}, "tle": {"line1": "1 44333U 19034A   25344.97227778 -.00000109  00000+0  00000+0 0  9990", "line2": "2 44333   0.0297  74.5044 0000510  72.1437 182.4372  1.00268632 23742"}}, "geometry": {"type": "Point", "coordinates": [-95.19522059704302, -0.020632043965171872]}}]}